SL-14 R/B               
1 21423U 91042B   26059.97935823  .00000535  00000+0  64695-4 0  9992
2 21423  82.4908 228.3510 0015569 269.8447  90.0983 14.81818840851783
ERS-1                   
1 21574U 91050A   26060.00843240  .00000364  00000+0  13101-3 0  9990
2 21574  98.7887  78.0247 0031175 226.6269 133.2320 14.39441385814487
ARIANE 40 R/B           
1 21610U 91050F   26060.14938140  .00000326  00000+0  11004-3 0  9998
2 21610  98.2031 112.7057 0004375  99.7057 260.4628 14.42886207817763
INTERCOSMOS 25          
1 21819U 91086A   26060.15441152  .00001607  00000+0  30858-3 0  9992
2 21819  82.6068 315.1664 1487086 135.3203 237.7874 12.11971749495659
SL-8 R/B                
1 21876U 92008B   26060.15298762  .00000010  00000+0 -53321-5 0  9997
2 21876  82.9228 274.1302 0035128 156.6274 322.8579 13.75969884708243
SL-8 R/B                
1 21938U 92020B   26059.82936599  .00000071  00000+0  58559-4 0  9992
2 21938  82.9342 160.3381 0028030 324.5344 152.6797 13.75548308699918
USA 81                  
1 21949U 92023A   26060.13615395  .00000188  00000+0  62270-4 0  9995
2 21949  85.0101 136.3748 0002687  84.6942 275.4557 14.32364558 93569
COSMOS 2219             
1 22219U 92076A   26060.17390164  .00000350  00000+0  20822-3 0  9999
2 22219  71.0611  35.8687 0019422 218.3864 141.5878 14.14087341717171
SL-16 R/B               
1 22220U 92076B   26059.88196556  .00000215  00000+0  13080-3 0  9994
2 22220  70.9995 206.9253 0010749 112.5287   1.4029 14.16858910720584
COSMOS 2221             
1 22236U 92080A   26060.07689563  .00001867  00000+0  16331-3 0  9990
2 22236  82.5022 287.3320 0013287 217.5757 142.4538 14.96161955779508
SL-16 R/B               
1 22285U 92093B   26060.11774798 -.00000061  00000+0 -71059-5 0  9995
2 22285  71.0235  22.2591 0006187 302.9041  57.1487 14.15449721711943
COSMOS 2228             
1 22286U 92094A   26060.09893684  .00002288  00000+0  19540-3 0  9996
2 22286  82.5144 245.5376 0017352 335.2264  24.8124 14.97138877774779
