CCSDS_OMM_VERS = 2.0
CREATION_DATE  = 
ORIGINATOR     = 

OBJECT_NAME    = SL-14 R/B
OBJECT_ID      = 1991-042B
CENTER_NAME    = EARTH
REF_FRAME      = TEME
TIME_SYSTEM    = UTC
MEAN_ELEMENT_THEORY = SGP/SGP4

EPOCH          = 2026-02-28T23:30:16.551072
MEAN_MOTION    = 14.81818840
ECCENTRICITY   = .0015569
INCLINATION    = 82.4908
RA_OF_ASC_NODE = 228.3510
ARG_OF_PERICENTER = 269.8447
MEAN_ANOMALY   = 90.0983

EPHEMERIS_TYPE = 0
CLASSIFICATION_TYPE = U
NORAD_CAT_ID   = 21423
ELEMENT_SET_NO = 999
REV_AT_EPOCH   = 85178
BSTAR          = .64695E-4
MEAN_MOTION_DOT = .535E-5
MEAN_MOTION_DDOT = 0

CCSDS_OMM_VERS = 2.0
CREATION_DATE  = 
ORIGINATOR     = 

OBJECT_NAME    = ERS-1
OBJECT_ID      = 1991-050A
CENTER_NAME    = EARTH
REF_FRAME      = TEME
TIME_SYSTEM    = UTC
MEAN_ELEMENT_THEORY = SGP/SGP4

EPOCH          = 2026-03-01T00:12:08.559360
MEAN_MOTION    = 14.39441385
ECCENTRICITY   = .0031175
INCLINATION    = 98.7887
RA_OF_ASC_NODE = 78.0247
ARG_OF_PERICENTER = 226.6269
MEAN_ANOMALY   = 133.2320

EPHEMERIS_TYPE = 0
CLASSIFICATION_TYPE = U
NORAD_CAT_ID   = 21574
ELEMENT_SET_NO = 999
REV_AT_EPOCH   = 81448
BSTAR          = .13101E-3
MEAN_MOTION_DOT = .364E-5
MEAN_MOTION_DDOT = 0

CCSDS_OMM_VERS = 2.0
CREATION_DATE  = 
ORIGINATOR     = 

OBJECT_NAME    = ARIANE 40 R/B
OBJECT_ID      = 1991-050F
CENTER_NAME    = EARTH
REF_FRAME      = TEME
TIME_SYSTEM    = UTC
MEAN_ELEMENT_THEORY = SGP/SGP4

EPOCH          = 2026-03-01T03:35:06.552960
MEAN_MOTION    = 14.42886207
ECCENTRICITY   = .0004375
INCLINATION    = 98.2031
RA_OF_ASC_NODE = 112.7057
ARG_OF_PERICENTER = 99.7057
MEAN_ANOMALY   = 260.4628

EPHEMERIS_TYPE = 0
CLASSIFICATION_TYPE = U
NORAD_CAT_ID   = 21610
ELEMENT_SET_NO = 999
REV_AT_EPOCH   = 81776
BSTAR          = .11004E-3
MEAN_MOTION_DOT = .326E-5
MEAN_MOTION_DDOT = 0

CCSDS_OMM_VERS = 2.0
CREATION_DATE  = 
ORIGINATOR     = 

OBJECT_NAME    = INTERCOSMOS 25
OBJECT_ID      = 1991-086A
CENTER_NAME    = EARTH
REF_FRAME      = TEME
TIME_SYSTEM    = UTC
MEAN_ELEMENT_THEORY = SGP/SGP4

EPOCH          = 2026-03-01T03:42:21.155328
MEAN_MOTION    = 12.11971749
ECCENTRICITY   = .1487086
INCLINATION    = 82.6068
RA_OF_ASC_NODE = 315.1664
ARG_OF_PERICENTER = 135.3203
MEAN_ANOMALY   = 237.7874

EPHEMERIS_TYPE = 0
CLASSIFICATION_TYPE = U
NORAD_CAT_ID   = 21819
ELEMENT_SET_NO = 999
REV_AT_EPOCH   = 49565
BSTAR          = .30858E-3
MEAN_MOTION_DOT = .1607E-4
MEAN_MOTION_DDOT = 0

CCSDS_OMM_VERS = 2.0
CREATION_DATE  = 
ORIGINATOR     = 

OBJECT_NAME    = SL-8 R/B
OBJECT_ID      = 1992-008B
CENTER_NAME    = EARTH
REF_FRAME      = TEME
TIME_SYSTEM    = UTC
MEAN_ELEMENT_THEORY = SGP/SGP4

EPOCH          = 2026-03-01T03:40:18.130368
MEAN_MOTION    = 13.75969884
ECCENTRICITY   = .0035128
INCLINATION    = 82.9228
RA_OF_ASC_NODE = 274.1302
ARG_OF_PERICENTER = 156.6274
MEAN_ANOMALY   = 322.8579

EPHEMERIS_TYPE = 0
CLASSIFICATION_TYPE = U
NORAD_CAT_ID   = 21876
ELEMENT_SET_NO = 999
REV_AT_EPOCH   = 70824
BSTAR          = -.53321E-5
MEAN_MOTION_DOT = .1E-6
MEAN_MOTION_DDOT = 0

CCSDS_OMM_VERS = 2.0
CREATION_DATE  = 
ORIGINATOR     = 

OBJECT_NAME    = SL-8 R/B
OBJECT_ID      = 1992-020B
CENTER_NAME    = EARTH
REF_FRAME      = TEME
TIME_SYSTEM    = UTC
MEAN_ELEMENT_THEORY = SGP/SGP4

EPOCH          = 2026-02-28T19:54:17.221536
MEAN_MOTION    = 13.75548308
ECCENTRICITY   = .00280304
INCLINATION    = 82.9342
RA_OF_ASC_NODE = 160.3381
ARG_OF_PERICENTER = 324.5344
MEAN_ANOMALY   = 152.6797

EPHEMERIS_TYPE = 0
CLASSIFICATION_TYPE = U
NORAD_CAT_ID   = 21938
ELEMENT_SET_NO = 999
REV_AT_EPOCH   = 69991
BSTAR          = .58558565E-4
MEAN_MOTION_DOT = .71E-6
MEAN_MOTION_DDOT = 0

CCSDS_OMM_VERS = 2.0
CREATION_DATE  = 
ORIGINATOR     = 

OBJECT_NAME    = USA 81
OBJECT_ID      = 1992-023A
CENTER_NAME    = EARTH
REF_FRAME      = TEME
TIME_SYSTEM    = UTC
MEAN_ELEMENT_THEORY = SGP/SGP4

EPOCH          = 2026-03-01T03:16:03.701280
MEAN_MOTION    = 14.32364558
ECCENTRICITY   = .0002687
INCLINATION    = 85.0101
RA_OF_ASC_NODE = 136.3748
ARG_OF_PERICENTER = 84.6942
MEAN_ANOMALY   = 275.4557

EPHEMERIS_TYPE = 0
CLASSIFICATION_TYPE = U
NORAD_CAT_ID   = 21949
ELEMENT_SET_NO = 999
REV_AT_EPOCH   = 9356
BSTAR          = .6227E-4
MEAN_MOTION_DOT = .188E-5
MEAN_MOTION_DDOT = 0

CCSDS_OMM_VERS = 2.0
CREATION_DATE  = 
ORIGINATOR     = 

OBJECT_NAME    = COSMOS 2219
OBJECT_ID      = 1992-076A
CENTER_NAME    = EARTH
REF_FRAME      = TEME
TIME_SYSTEM    = UTC
MEAN_ELEMENT_THEORY = SGP/SGP4

EPOCH          = 2026-03-01T04:10:25.101696
MEAN_MOTION    = 14.14087341
ECCENTRICITY   = .0019422
INCLINATION    = 71.0611
RA_OF_ASC_NODE = 35.8687
ARG_OF_PERICENTER = 218.3864
MEAN_ANOMALY   = 141.5878

EPHEMERIS_TYPE = 0
CLASSIFICATION_TYPE = U
NORAD_CAT_ID   = 22219
ELEMENT_SET_NO = 999
REV_AT_EPOCH   = 71717
BSTAR          = .20822E-3
MEAN_MOTION_DOT = .35E-5
MEAN_MOTION_DDOT = 0

CCSDS_OMM_VERS = 2.0
CREATION_DATE  = 
ORIGINATOR     = 

OBJECT_NAME    = SL-16 R/B
OBJECT_ID      = 1992-076B
CENTER_NAME    = EARTH
REF_FRAME      = TEME
TIME_SYSTEM    = UTC
MEAN_ELEMENT_THEORY = SGP/SGP4

EPOCH          = 2026-02-28T21:10:01.824384
MEAN_MOTION    = 14.16858910
ECCENTRICITY   = .0010749
INCLINATION    = 70.9995
RA_OF_ASC_NODE = 206.9253
ARG_OF_PERICENTER = 112.5287
MEAN_ANOMALY   = 1.4029

EPHEMERIS_TYPE = 0
CLASSIFICATION_TYPE = U
NORAD_CAT_ID   = 22220
ELEMENT_SET_NO = 999
REV_AT_EPOCH   = 72058
BSTAR          = .1308E-3
MEAN_MOTION_DOT = .215E-5
MEAN_MOTION_DDOT = 0

CCSDS_OMM_VERS = 2.0
CREATION_DATE  = 
ORIGINATOR     = 

OBJECT_NAME    = COSMOS 2221
OBJECT_ID      = 1992-080A
CENTER_NAME    = EARTH
REF_FRAME      = TEME
TIME_SYSTEM    = UTC
MEAN_ELEMENT_THEORY = SGP/SGP4

EPOCH          = 2026-03-01T01:50:43.782432
MEAN_MOTION    = 14.96161955
ECCENTRICITY   = .0013287
INCLINATION    = 82.5022
RA_OF_ASC_NODE = 287.3320
ARG_OF_PERICENTER = 217.5757
MEAN_ANOMALY   = 142.4538

EPHEMERIS_TYPE = 0
CLASSIFICATION_TYPE = U
NORAD_CAT_ID   = 22236
ELEMENT_SET_NO = 999
REV_AT_EPOCH   = 77950
BSTAR          = .16331E-3
MEAN_MOTION_DOT = .1867E-4
MEAN_MOTION_DDOT = 0

CCSDS_OMM_VERS = 2.0
CREATION_DATE  = 
ORIGINATOR     = 

OBJECT_NAME    = SL-16 R/B
OBJECT_ID      = 1992-093B
CENTER_NAME    = EARTH
REF_FRAME      = TEME
TIME_SYSTEM    = UTC
MEAN_ELEMENT_THEORY = SGP/SGP4

EPOCH          = 2026-03-01T02:49:33.425472
MEAN_MOTION    = 14.15449721
ECCENTRICITY   = .0006187
INCLINATION    = 71.0235
RA_OF_ASC_NODE = 22.2591
ARG_OF_PERICENTER = 302.9041
MEAN_ANOMALY   = 57.1487

EPHEMERIS_TYPE = 0
CLASSIFICATION_TYPE = U
NORAD_CAT_ID   = 22285
ELEMENT_SET_NO = 999
REV_AT_EPOCH   = 71194
BSTAR          = -.71059E-5
MEAN_MOTION_DOT = -.61E-6
MEAN_MOTION_DDOT = 0

CCSDS_OMM_VERS = 2.0
CREATION_DATE  = 
ORIGINATOR     = 

OBJECT_NAME    = COSMOS 2228
OBJECT_ID      = 1992-094A
CENTER_NAME    = EARTH
REF_FRAME      = TEME
TIME_SYSTEM    = UTC
MEAN_ELEMENT_THEORY = SGP/SGP4

EPOCH          = 2026-03-01T02:22:28.142976
MEAN_MOTION    = 14.97138877
ECCENTRICITY   = .0017352
INCLINATION    = 82.5144
RA_OF_ASC_NODE = 245.5376
ARG_OF_PERICENTER = 335.2264
MEAN_ANOMALY   = 24.8124

EPHEMERIS_TYPE = 0
CLASSIFICATION_TYPE = U
NORAD_CAT_ID   = 22286
ELEMENT_SET_NO = 999
REV_AT_EPOCH   = 77477
BSTAR          = .1954E-3
MEAN_MOTION_DOT = .2288E-4
MEAN_MOTION_DDOT = 0

